GLOBALSTAR M084         
1 38040U 11080A   24227.38123149 -.00000064  00000+0  22023-3 0  9995
2 38040  51.9992 262.5063 0000607 111.3074 261.9224 12.62265661583926
GLOBALSTAR M080         
1 38041U 11080B   24227.35471372 -.00000060  00000+0  24210-3 0  9993
2 38041  52.0045 264.0860 0000667  88.3427 284.4607 12.62264040584040
GLOBALSTAR M082         
1 38042U 11080C   24227.39755608 -.00000074  00000+0  16363-3 0  9990
2 38042  52.0050 219.3669 0000385 229.8385 277.7541 12.62265084584758
GLOBALSTAR M090         
1 38044U 11080E   24227.49748347 -.00000076  00000+0  15562-3 0  9997
2 38044  51.9861 213.2665 0000088 253.8148 227.8305 12.62266099584886
GLOBALSTAR M086         
1 38045U 11080F   24227.53080338 -.00000073  00000+0  17199-3 0  9997
2 38045  51.9873 213.6913 0000993   7.3749 146.4877 12.62265518584834
GLOBALSTAR M097         
1 39072U 13005A   24227.44469014 -.00000097  00000+0  36693-4 0  9996
2 39072  52.0043 128.1922 0000569  29.3820 330.7078 12.62269460532079
GLOBALSTAR M093         
1 39073U 13005B   24226.70499462 -.00000085  00000+0  10527-3 0  9999
2 39073  51.9805 124.2346 0000613  19.7931 340.2959 12.62276936531931
